NORAD_CAT_ID,OBJECT_NAME,OBJECT_TYPE,EPOCH,MEAN_MOTION,ECCENTRICITY,INCLINATION,RA_OF_ASC_NODE,ARG_OF_PERICENTER,MEAN_ANOMALY,BSTAR,MEAN_MOTION_DOT,MEAN_MOTION_DDOT,TLE_LINE0,TLE_LINE1,TLE_LINE2,SEMIMAJOR_AXIS,PERIOD,APOGEE,PERIGEE,DECAYED
53596.0,STARLINK-4668,PAYLOAD,2023-03-27 06:48:16,15.0885589,0.0001355,53.2168,45.1656,88.472,271.6427,0.00092301,0.00014439,0.0,0 STARLINK-4668,1 53596U 22104J   23086.28352586  .00014439  00000-0  92301-3 0  9994,2 53596  53.2168  45.1656 0001355  88.4720 271.6427 15.08855890 32121,6917.832,95.437,540.634,538.759,0.0
53596.0,STARLINK-4668,PAYLOAD,2023-03-27 21:06:44,15.08849743,0.0001536,53.2174,42.491,92.925,267.1918,0.00028362,4.23e-05,0.0,0 STARLINK-4668,1 53596U 22104J   23086.87968746  .00004230  00000-0  28362-3 0  9994,2 53596  53.2174  42.4910 0001536  92.9250 267.1918 15.08849743 32215,6917.851,95.437,540.778,538.653,0.0
53596.0,STARLINK-4668,PAYLOAD,2023-03-28 03:28:17,15.08861992,0.0001179,53.2171,41.2996,89.7061,270.4067,0.0012695,0.00019986,0.0,0 STARLINK-4668,1 53596U 22104J   23087.14464460  .00019986  00000-0  12695-2 0  9994,2 53596  53.2171  41.2996 0001179  89.7061 270.4067 15.08861992 32256,6917.813,95.436,540.494,538.863,0.0
53596.0,STARLINK-4668,PAYLOAD,2023-03-28 22:32:54,15.0884128,0.0001076,53.2159,37.7319,94.3685,265.743,0.00018755,2.698e-05,0.0,0 STARLINK-4668,1 53596U 22104J   23087.93952528  .00002698  00000-0  18755-3 0  9994,2 53596  53.2159  37.7319 0001076  94.3685 265.7430 15.08841280 32373,6917.876,95.437,540.486,538.997,0.0
53596.0,STARLINK-4668,PAYLOAD,2023-03-29 06:29:49,15.08861386,0.0001153,53.2166,36.2463,78.3642,281.748,0.00040639,6.189e-05,0.0,0 STARLINK-4668,1 53596U 22104J   23088.27071747  .00006189  00000-0  40639-3 0  9992,2 53596  53.2166  36.2463 0001153  78.3642 281.7480 15.08861386 32424,6917.815,95.436,540.478,538.882,0.0
53596.0,STARLINK-4668,PAYLOAD,2023-03-30 03:09:51,15.08853162,0.0001118,53.2174,32.3808,109.4263,250.685,0.00026465,3.928e-05,0.0,0 STARLINK-4668,1 53596U 22104J   23089.13184093  .00003928  00000-0  26465-3 0  9996,2 53596  53.2174  32.3808 0001118 109.4263 250.6850 15.08853162 32552,6917.84,95.437,540.479,538.932,0.0
53596.0,STARLINK-4668,PAYLOAD,2023-03-30 12:42:09,15.08848164,0.0001188,53.2179,30.5993,86.6023,273.5105,-2.3968e-05,-6.69e-06,0.0,0 STARLINK-4668,1 53596U 22104J   23089.52928132 -.00000669  00000-0 -23968-4 0  9996,2 53596  53.2179  30.5993 0001188  86.6023 273.5105 15.08848164 32619,6917.855,95.437,540.542,538.899,0.0
53596.0,STARLINK-4668,PAYLOAD,2023-03-31 03:00:38,15.088417,0.0001424,53.2198,27.927,100.9175,259.1977,3.2079e-05,2.23e-06,0.0,0 STARLINK-4668,1 53596U 22104J   23090.12544863  .00000223  00000-0  32079-4 0  9996,2 53596  53.2198  27.9270 0001424 100.9175 259.1977 15.08841700 32705,6917.875,95.437,540.725,538.755,0.0
53596.0,STARLINK-4668,PAYLOAD,2023-04-01 04:26:48,15.08848553,9.77e-05,53.2175,23.1635,77.9431,282.1671,0.00015709,2.214e-05,0.0,0 STARLINK-4668,1 53596U 22104J   23091.18528761  .00002214  00000-0  15709-3 0  9994,2 53596  53.2175  23.1635 0000977  77.9431 282.1671 15.08848553 32860,6917.854,95.437,540.395,539.043,0.0
53596.0,STARLINK-4668,PAYLOAD,2023-04-02 02:42:13,15.08837294,0.000141,53.2185,18.9976,70.6926,289.4218,0.00010564,1.394e-05,0.0,0 STARLINK-4668,1 53596U 22104J   23092.11265759  .00001394  00000-0  10564-3 0  9995,2 53596  53.2185  18.9976 0001410  70.6926 289.4218 15.08837294 33007,6917.889,95.438,540.729,538.778,0.0
53596.0,STARLINK-4668,PAYLOAD,2023-04-02 18:36:05,15.08843099,0.0001254,53.2183,16.0263,76.5542,283.559,0.00013382,1.843e-05,0.0,0 STARLINK-4668,1 53596U 22104J   23092.77505826  .00001843  00000-0  13382-3 0  9999,2 53596  53.2183  16.0263 0001254  76.5542 283.5590 15.08843099 33792,6917.871,95.437,540.603,538.868,0.0
53596.0,STARLINK-4668,PAYLOAD,2023-04-03 02:33:00,15.08849586,0.0001404,53.2183,14.5398,74.9117,285.2031,0.00027672,4.12e-05,0.0,0 STARLINK-4668,1 53596U 22104J   23093.10625505  .00004120  00000-0  27672-3 0  9992,2 53596  53.2183  14.5398 0001404  74.9117 285.2031 15.08849586 33157,6917.851,95.437,540.687,538.745,0.0
53596.0,STARLINK-4668,PAYLOAD,2023-04-04 00:48:24,15.08846694,0.0001468,53.2196,10.3784,71.3914,288.7237,0.00013652,1.886e-05,0.0,0 STARLINK-4668,1 53596U 22104J   23094.03361675  .00001886  00000-0  13652-3 0  9999,2 53596  53.2196  10.3784 0001468  71.3914 288.7237 15.08846694 33298,6917.86,95.437,540.74,538.709,0.0
53596.0,STARLINK-4668,PAYLOAD,2023-04-04 21:28:25,15.08841883,0.0001382,53.2201,6.5151,71.6802,288.4341,5.9821e-05,6.64e-06,0.0,0 STARLINK-4668,1 53596U 22104J   23094.89473837  .00000664  00000-0  59821-4 0  9999,2 53596  53.2201   6.5151 0001382  71.6802 288.4341 15.08841883 34114,6917.875,95.437,540.696,538.784,0.0
53596.0,STARLINK-4668,PAYLOAD,2023-04-05 00:39:11,15.08842753,0.000141,53.2188,5.9164,81.4883,278.6269,2.2302e-05,6.7e-07,0.0,0 STARLINK-4668,1 53596U 22104J   23095.02721698  .00000067  00000-0  22302-4 0  9997,2 53596  53.2188   5.9164 0001410  81.4883 278.6269 15.08842753 33447,6917.872,95.437,540.712,538.762,0.0
53596.0,STARLINK-4668,PAYLOAD,2023-04-05 21:19:11,15.08856198,0.0001186,53.2178,2.0488,95.7314,264.3813,-0.00035104,-5.873e-05,0.0,0 STARLINK-4668,1 53596U 22104J   23095.88832996 -.00005873  00000-0 -35104-3 0  9990,2 53596  53.2178   2.0488 0001186  95.7314 264.3813 15.08856198 34266,6917.831,95.437,540.516,538.875,0.0
53596.0,STARLINK-4668,PAYLOAD,2023-04-06 03:40:44,15.08851614,0.0001238,53.2179,0.8599,89.2091,270.9043,6.3458e-05,7.23e-06,0.0,0 STARLINK-4668,1 53596U 22104J   23096.15329076  .00000723  00000-0  63458-4 0  9992,2 53596  53.2179   0.8599 0001238  89.2091 270.9043 15.08851614 33618,6917.845,95.437,540.566,538.853,0.0
53596.0,STARLINK-4668,PAYLOAD,2023-04-06 17:59:13,15.08834764,0.0001593,53.2178,358.1835,101.3192,258.7979,1.4473e-05,-5.8e-07,0.0,0 STARLINK-4668,1 53596U 22104J   23096.74946034 -.00000058  00000-0  14473-4 0  9991,2 53596  53.2178 358.1835 0001593 101.3192 258.7979 15.08834764 33700,6917.896,95.438,540.863,538.659,0.0
53596.0,STARLINK-4668,PAYLOAD,2023-04-07 00:20:45,15.08839448,0.0001433,53.219,356.9981,119.8847,240.2288,0.00010176,1.332e-05,0.0,0 STARLINK-4668,1 53596U 22104J   23097.01441857  .00001332  00000-0  10176-3 0  9995,2 53596  53.2190 356.9981 0001433 119.8847 240.2288 15.08839448 34430,6917.882,95.438,540.738,538.756,0.0
53596.0,STARLINK-4668,PAYLOAD,2023-04-07 21:00:46,15.08837613,0.0001136,53.2176,353.1317,106.2229,253.8889,-5.3077e-05,-1.132e-05,0.0,0 STARLINK-4668,1 53596U 22104J   23097.87554018 -.00001132  00000-0 -53077-4 0  9991,2 53596  53.2176 353.1317 0001136 106.2229 253.8889 15.08837613 33876,6917.888,95.438,540.539,538.967,0.0
53596.0,STARLINK-4668,PAYLOAD,2023-04-08 01:46:55,15.08841734,0.0001017,53.2172,352.2388,101.6847,258.4259,1.9588e-05,2.4e-07,0.0,0 STARLINK-4668,1 53596U 22104J   23098.07425862  .00000024  00000-0  19588-4 0  9994,2 53596  53.2172 352.2388 0001017 101.6847 258.4259 15.08841734 34594,6917.875,95.437,540.444,539.037,0.0
53596.0,STARLINK-4668,PAYLOAD,2023-04-09 01:37:43,15.08843407,0.0001353,53.2187,347.7793,96.6985,263.4161,0.00012113,1.641e-05,0.0,0 STARLINK-4668,1 53596U 22104J   23099.06786180  .00001641  00000-0  12113-3 0  9999,2 53596  53.2187 347.7793 0001353  96.6985 263.4161 15.08843407 34056,6917.87,95.437,540.671,538.799,0.0
53596.0,STARLINK-4668,PAYLOAD,2023-04-09 22:17:44,15.08842541,0.0001285,53.2189,343.9107,95.8007,264.3131,9.2404e-05,1.183e-05,0.0,0 STARLINK-4668,1 53596U 22104J   23099.92898341  .00001183  00000-0  92404-4 0  9990,2 53596  53.2189 343.9107 0001285  95.8007 264.3131 15.08842541 34870,6917.873,95.437,540.627,538.849,0.0
53596.0,STARLINK-4668,PAYLOAD,2023-04-09 23:53:07,15.08843258,0.0001229,53.2185,343.6136,110.128,249.9844,0.00010005,1.305e-05,0.0,0 STARLINK-4668,1 53596U 22104J   23099.99522246  .00001305  00000-0  10005-3 0  9997,2 53596  53.2185 343.6136 0001229 110.1280 249.9844 15.08843258 34884,6917.87,95.437,540.586,538.885,0.0
53596.0,STARLINK-4668,PAYLOAD,2023-04-10 22:08:32,15.08835167,0.0001186,53.2184,339.4508,112.0646,248.0472,-5.6743e-06,-3.78e-06,0.0,0 STARLINK-4668,1 53596U 22104J   23100.92259352 -.00000378  00000-0 -56743-5 0  9990,2 53596  53.2184 339.4508 0001186 112.0646 248.0472 15.08835167 35022,6917.895,95.438,540.581,538.94,0.0
53596.0,STARLINK-4668,PAYLOAD,2023-04-11 21:59:18,15.0884952,9.12e-05,53.2172,334.9915,97.117,262.9926,9.5176e-05,1.228e-05,0.0,0 STARLINK-4668,1 53596U 22104J   23101.91618270  .00001228  00000-0  95176-4 0  9993,2 53596  53.2172 334.9915 0000912  97.1170 262.9926 15.08849520 35175,6917.851,95.437,540.347,539.085,0.0
53596.0,STARLINK-4668,PAYLOAD,2023-04-12 01:10:03,15.08858428,9.14e-05,53.2172,334.3951,101.8298,258.2797,0.00017925,2.568e-05,0.0,0 STARLINK-4668,1 53596U 22104J   23102.04865457  .00002568  00000-0  17925-3 0  9992,2 53596  53.2172 334.3951 0000914 101.8298 258.2797 15.08858428 34502,6917.824,95.436,540.321,539.057,0.0
53596.0,STARLINK-4668,PAYLOAD,2023-04-13 01:00:52,15.08842474,9.34e-05,53.2161,329.9364,75.7478,284.3618,8.0157e-05,9.88e-06,0.0,0 STARLINK-4668,1 53596U 22104J   23103.04226896  .00000988  00000-0  80157-4 0  9993,2 53596  53.2161 329.9364 0000934  75.7478 284.3618 15.08842474 35348,6917.873,95.437,540.384,539.092,0.0
53596.0,STARLINK-4668,PAYLOAD,2023-04-14 13:34:44,15.08832386,9.71e-05,53.2172,323.0958,80.9677,279.1425,1.6969e-05,-1.8e-07,0.0,0 STARLINK-4668,1 53596U 22104J   23104.56579371 -.00000018  00000-0  16969-4 0  9995,2 53596  53.2172 323.0958 0000971  80.9677 279.1425 15.08832386 35578,6917.904,95.438,540.44,539.097,0.0
53596.0,STARLINK-4668,PAYLOAD,2023-04-15 13:25:31,15.08838622,9.56e-05,53.2164,318.6358,84.5688,275.5413,0.0001123,1.5e-05,0.0,0 STARLINK-4668,1 53596U 22104J   23105.55939337  .00001500  00000-0  11230-3 0  9998,2 53596  53.2164 318.6358 0000956  84.5688 275.5413 15.08838622 35721,6917.885,95.438,540.411,539.088,0.0
